[Satellite]
VERSION=1.1
NAME=GPS BIIR-8  (PRN 16)
NICKNAME=GPS BIIR-8  (PRN 16)
TLE1=1 27663U 03005A   22342.50807274 -.00000019  00000+0  00000+0 0  9997
TLE2=2 27663  55.4001 266.1465 0129728  41.8408 126.8297  2.00554406145501
STATUS=0
